start=new Date('2022-07-23T00:00:00.000Z').valueOf();
sats=[{"MEAN_MOTION":"15.08856675","RCS_SIZE":"LARGE","MEAN_ANOMALY":"274.2435","CENTER_NAME":"EARTH","MEAN_MOTION_DOT":"-0.00009725","COUNTRY_CODE":"US","BSTAR":"-0.00059347000000","MEAN_MOTION_DDOT":"0.0000000000000","EPHEMERIS_TYPE":"0","NORAD_CAT_ID":"52119","OBJECT_TYPE":"PAYLOAD","TLE_LINE1":"1 52119U 22029AH  22203.91667824 -.00009725  00000-0 -59347-3 0  9991","TLE_LINE2":"2 52119  53.2155 270.7300 0001732  49.6920 274.2435 15.08856675  1305","ARG_OF_PERICENTER":"49.6920","REF_FRAME":"TEME","PERIOD":"95.436","INCLINATION":"53.2155","SEMIMAJOR_AXIS":"6917.829","LAUNCH_DATE":"2022-03-19","OBJECT_NAME":"STARLINK-3558","DECAY_DATE":null,"EPOCH":"2022-07-22T22:00:00.999936","REV_AT_EPOCH":"130","RA_OF_ASC_NODE":"270.7300","OBJECT_ID":"2022-029AH","MEAN_ELEMENT_THEORY":"SGP4","ELEMENT_SET_NO":"999","CLASSIFICATION_TYPE":"U","GP_ID":"208672345","ECCENTRICITY":"0.00017320","FILE":"3519932","APOAPSIS":"540.893","PERIAPSIS":"538.496","SITE":"AFETR","TIME_SYSTEM":"UTC"},{"REV_AT_EPOCH":"130","EPOCH":"2022-07-22T22:00:00.999936","OBJECT_ID":"2022-029AJ","RA_OF_ASC_NODE":"270.7293","MEAN_ELEMENT_THEORY":"SGP4","LAUNCH_DATE":"2022-03-19","OBJECT_NAME":"STARLINK-3534","DECAY_DATE":null,"PERIAPSIS":"538.442","SITE":"AFETR","TIME_SYSTEM":"UTC","CLASSIFICATION_TYPE":"U","ELEMENT_SET_NO":"999","GP_ID":"208671612","ECCENTRICITY":"0.00018320","FILE":"3519932","APOAPSIS":"540.977","CENTER_NAME":"EARTH","MEAN_MOTION_DOT":"-0.00010462","COUNTRY_CODE":"US","BSTAR":"-0.00063994000000","MEAN_MOTION_DDOT":"0.0000000000000","EPHEMERIS_TYPE":"0","NORAD_CAT_ID":"52120","MEAN_MOTION":"15.08851826","RCS_SIZE":"LARGE","MEAN_ANOMALY":"213.4345","ARG_OF_PERICENTER":"50.4618","REF_FRAME":"TEME","PERIOD":"95.437","INCLINATION":"53.2175","SEMIMAJOR_AXIS":"6917.844","OBJECT_TYPE":"PAYLOAD","TLE_LINE1":"1 52120U 22029AJ  22203.91667824 -.00010462  00000-0 -63994-3 0  9996","TLE_LINE2":"2 52120  53.2175 270.7293 0001832  50.4618 213.4345 15.08851826  1303"},{"ARG_OF_PERICENTER":"43.6875","REF_FRAME":"TEME","INCLINATION":"53.2149","PERIOD":"95.438","SEMIMAJOR_AXIS":"6917.885","OBJECT_TYPE":"PAYLOAD","TLE_LINE2":"2 52121  53.2149 260.7468 0001849  43.6875  15.3756 15.08838497  1309","TLE_LINE1":"1 52121U 22029AK  22203.91667824 -.00018458  00000-0 -11446-2 0  9994","CENTER_NAME":"EARTH","MEAN_MOTION_DOT":"-0.00018458","COUNTRY_CODE":"US","BSTAR":"-0.00114460000000","MEAN_MOTION_DDOT":"0.0000000000000","EPHEMERIS_TYPE":"0","NORAD_CAT_ID":"52121","MEAN_MOTION":"15.08838497","RCS_SIZE":"LARGE","MEAN_ANOMALY":"15.3756","PERIAPSIS":"538.471","SITE":"AFETR","TIME_SYSTEM":"UTC","ELEMENT_SET_NO":"999","CLASSIFICATION_TYPE":"U","ECCENTRICITY":"0.00018490","GP_ID":"208672363","APOAPSIS":"541.029","FILE":"3519932","EPOCH":"2022-07-22T22:00:00.999936","REV_AT_EPOCH":"130","OBJECT_ID":"2022-029AK","RA_OF_ASC_NODE":"260.7468","MEAN_ELEMENT_THEORY":"SGP4","LAUNCH_DATE":"2022-03-19","OBJECT_NAME":"STARLINK-3678","DECAY_DATE":null},{"PERIAPSIS":"538.581","TIME_SYSTEM":"UTC","SITE":"AFETR","ECCENTRICITY":"0.00016550","GP_ID":"208672113","ELEMENT_SET_NO":"999","CLASSIFICATION_TYPE":"U","FILE":"3519932","APOAPSIS":"540.871","OBJECT_ID":"2022-029AL","RA_OF_ASC_NODE":"270.7284","REV_AT_EPOCH":"130","EPOCH":"2022-07-22T22:00:00.999936","MEAN_ELEMENT_THEORY":"SGP4","OBJECT_NAME":"STARLINK-3726","LAUNCH_DATE":"2022-03-19","DECAY_DATE":null,"ARG_OF_PERICENTER":"48.4825","REF_FRAME":"TEME","SEMIMAJOR_AXIS":"6917.861","INCLINATION":"53.2167","PERIOD":"95.437","TLE_LINE1":"1 52122U 22029AL  22203.91667824 -.00009451  00000-0 -57639-3 0  9993","TLE_LINE2":"2 52122  53.2167 270.7284 0001655  48.4825 255.3982 15.08846456  1301","OBJECT_TYPE":"PAYLOAD","BSTAR":"-0.00057639000000","COUNTRY_CODE":"US","CENTER_NAME":"EARTH","MEAN_MOTION_DOT":"-0.00009451","NORAD_CAT_ID":"52122","EPHEMERIS_TYPE":"0","MEAN_MOTION_DDOT":"0.0000000000000","MEAN_MOTION":"15.08846456","MEAN_ANOMALY":"255.3982","RCS_SIZE":"LARGE"},{"TLE_LINE2":"2 52123  53.2156 260.7494 0002259  37.7541  61.2105 15.08851742  1304","TLE_LINE1":"1 52123U 22029AM  22203.91667824  .00002327  00000-0  16423-3 0  9993","OBJECT_TYPE":"PAYLOAD","SEMIMAJOR_AXIS":"6917.844","INCLINATION":"53.2156","PERIOD":"95.437","ARG_OF_PERICENTER":"37.7541","REF_FRAME":"TEME","MEAN_ANOMALY":"61.2105","RCS_SIZE":"LARGE","MEAN_MOTION":"15.08851742","NORAD_CAT_ID":"52123","EPHEMERIS_TYPE":"0","MEAN_MOTION_DDOT":"0.0000000000000","BSTAR":"0.00016423000000","COUNTRY_CODE":"US","CENTER_NAME":"EARTH","MEAN_MOTION_DOT":"0.00002327","APOAPSIS":"541.272","FILE":"3519932","ECCENTRICITY":"0.00022590","GP_ID":"208672846","CLASSIFICATION_TYPE":"U","ELEMENT_SET_NO":"999","TIME_SYSTEM":"UTC","SITE":"AFETR","PERIAPSIS":"538.147","DECAY_DATE":null,"LAUNCH_DATE":"2022-03-19","OBJECT_NAME":"STARLINK-3725","MEAN_ELEMENT_THEORY":"SGP4","OBJECT_ID":"2022-029AM","RA_OF_ASC_NODE":"260.7494","EPOCH":"2022-07-22T22:00:00.999936","REV_AT_EPOCH":"130"},{"DECAY_DATE":null,"OBJECT_NAME":"STARLINK-3684","LAUNCH_DATE":"2022-03-19","MEAN_ELEMENT_THEORY":"SGP4","OBJECT_ID":"2022-029AN","RA_OF_ASC_NODE":"270.7287","REV_AT_EPOCH":"130","EPOCH":"2022-07-22T22:00:00.999936","FILE":"3519932","APOAPSIS":"540.950","ECCENTRICITY":"0.00018060","GP_ID":"208671112","ELEMENT_SET_NO":"999","CLASSIFICATION_TYPE":"U","TIME_SYSTEM":"UTC","SITE":"AFETR","PERIAPSIS":"538.452","MEAN_ANOMALY":"290.2923","RCS_SIZE":"LARGE","MEAN_MOTION":"15.08854563","NORAD_CAT_ID":"52124","EPHEMERIS_TYPE":"0","MEAN_MOTION_DDOT":"0.0000000000000","BSTAR":"-0.00045075000000","COUNTRY_CODE":"US","CENTER_NAME":"EARTH","MEAN_MOTION_DOT":"-0.00007458","TLE_LINE2":"2 52124  53.2164 270.7287 0001806  53.6668 290.2923 15.08854563  1305","TLE_LINE1":"1 52124U 22029AN  22203.91667824 -.00007458  00000-0 -45075-3 0  9991","OBJECT_TYPE":"PAYLOAD","SEMIMAJOR_AXIS":"6917.836","INCLINATION":"53.2164","PERIOD":"95.437","ARG_OF_PERICENTER":"53.6668","REF_FRAME":"TEME"},{"MEAN_MOTION":"15.08849767","MEAN_ANOMALY":"73.0024","RCS_SIZE":"LARGE","CENTER_NAME":"EARTH","MEAN_MOTION_DOT":"0.00006778","BSTAR":"0.00044340000000","COUNTRY_CODE":"US","MEAN_MOTION_DDOT":"0.0000000000000","NORAD_CAT_ID":"52125","EPHEMERIS_TYPE":"0","TLE_LINE2":"2 52125  53.2145 260.7467 0002019  45.9658  73.0024 15.08849767  1303","TLE_LINE1":"1 52125U 22029AP  22203.91667824  .00006778  00000-0  44340-3 0  9998","OBJECT_TYPE":"PAYLOAD","ARG_OF_PERICENTER":"45.9658","REF_FRAME":"TEME","INCLINATION":"53.2145","PERIOD":"95.437","SEMIMAJOR_AXIS":"6917.851","LAUNCH_DATE":"2022-03-19","OBJECT_NAME":"STARLINK-3727","DECAY_DATE":null,"REV_AT_EPOCH":"130","EPOCH":"2022-07-22T22:00:00.999936","RA_OF_ASC_NODE":"260.7467","OBJECT_ID":"2022-029AP","MEAN_ELEMENT_THEORY":"SGP4","GP_ID":"208671863","ECCENTRICITY":"0.00020190","CLASSIFICATION_TYPE":"U","ELEMENT_SET_NO":"999","APOAPSIS":"541.112","FILE":"3519932","PERIAPSIS":"538.319","TIME_SYSTEM":"UTC","SITE":"AFETR"},{"APOAPSIS":"541.106","FILE":"3519932","ECCENTRICITY":"0.00018980","GP_ID":"208672614","CLASSIFICATION_TYPE":"U","ELEMENT_SET_NO":"999","TIME_SYSTEM":"UTC","SITE":"AFETR","PERIAPSIS":"538.480","DECAY_DATE":null,"OBJECT_NAME":"STARLINK-3732","LAUNCH_DATE":"2022-03-19","MEAN_ELEMENT_THEORY":"SGP4","RA_OF_ASC_NODE":"260.7469","OBJECT_ID":"2022-029AQ","EPOCH":"2022-07-22T22:00:00.999936","REV_AT_EPOCH":"130","TLE_LINE2":"2 52126  53.2146 260.7469 0001898  35.7965  43.2319 15.08824576  1306","TLE_LINE1":"1 52126U 22029AQ  22203.91667824  .00005600  00000-0  36979-3 0  9991","OBJECT_TYPE":"PAYLOAD","SEMIMAJOR_AXIS":"6917.928","INCLINATION":"53.2146","PERIOD":"95.439","REF_FRAME":"TEME","ARG_OF_PERICENTER":"35.7965","MEAN_ANOMALY":"43.2319","RCS_SIZE":"LARGE","MEAN_MOTION":"15.08824576","NORAD_CAT_ID":"52126","EPHEMERIS_TYPE":"0","MEAN_MOTION_DDOT":"0.0000000000000","BSTAR":"0.00036979000000","COUNTRY_CODE":"US","MEAN_MOTION_DOT":"0.00005600","CENTER_NAME":"EARTH"},{"FILE":"3519932","APOAPSIS":"540.992","GP_ID":"208672346","ECCENTRICITY":"0.00017490","ELEMENT_SET_NO":"999","CLASSIFICATION_TYPE":"U","TIME_SYSTEM":"UTC","SITE":"AFETR","PERIAPSIS":"538.572","DECAY_DATE":null,"OBJECT_NAME":"STARLINK-3715","LAUNCH_DATE":"2022-03-19","MEAN_ELEMENT_THEORY":"SGP4","RA_OF_ASC_NODE":"260.7457","OBJECT_ID":"2022-029AR","EPOCH":"2022-07-22T22:00:00.999936","REV_AT_EPOCH":"130","TLE_LINE1":"1 52127U 22029AR  22203.91667824  .00006880  00000-0  45010-3 0  9999","TLE_LINE2":"2 52127  53.2139 260.7457 0001749  38.6449 100.2410 15.08827900  1300","OBJECT_TYPE":"PAYLOAD","SEMIMAJOR_AXIS":"6917.917","PERIOD":"95.438","INCLINATION":"53.2139","REF_FRAME":"TEME","ARG_OF_PERICENTER":"38.6449","MEAN_ANOMALY":"100.2410","RCS_SIZE":"LARGE","MEAN_MOTION":"15.08827900","NORAD_CAT_ID":"52127","EPHEMERIS_TYPE":"0","MEAN_MOTION_DDOT":"0.0000000000000","BSTAR":"0.00045010000000","COUNTRY_CODE":"US","CENTER_NAME":"EARTH","MEAN_MOTION_DOT":"0.00006880"},{"RCS_SIZE":"LARGE","MEAN_ANOMALY":"131.8494","MEAN_MOTION":"15.08846119","EPHEMERIS_TYPE":"0","NORAD_CAT_ID":"52129","MEAN_MOTION_DDOT":"0.0000000000000","COUNTRY_CODE":"US","BSTAR":"-0.00096047000000","CENTER_NAME":"EARTH","MEAN_MOTION_DOT":"-0.00015544","OBJECT_TYPE":"PAYLOAD","TLE_LINE1":"1 52129U 22029AT  22203.91667824 -.00015544  00000-0 -96047-3 0  9996","TLE_LINE2":"2 52129  53.2145 260.7400 0001789  47.1504 131.8494 15.08846119  1303","SEMIMAJOR_AXIS":"6917.862","INCLINATION":"53.2145","PERIOD":"95.437","ARG_OF_PERICENTER":"47.1504","REF_FRAME":"TEME","DECAY_DATE":null,"LAUNCH_DATE":"2022-03-19","OBJECT_NAME":"STARLINK-3661","MEAN_ELEMENT_THEORY":"SGP4","RA_OF_ASC_NODE":"260.7400","OBJECT_ID":"2022-029AT","REV_AT_EPOCH":"130","EPOCH":"2022-07-22T22:00:00.999936","FILE":"3519932","APOAPSIS":"540.964","ELEMENT_SET_NO":"999","CLASSIFICATION_TYPE":"U","GP_ID":"208671613","ECCENTRICITY":"0.00017890","SITE":"AFETR","TIME_SYSTEM":"UTC","PERIAPSIS":"538.489"}];
